C/2020 H7 (Lemmon),e,135.9235,323.5194,82.6780,1405,0.0000187,0.99685380,0.0000,06/02.9510/2020,2000,g 11.0,4.0
# From MPEC 2021-N06
C/2020 H8 (PANSTARRS),e,99.6994,68.4362,128.9214,599.8904,0.0000671,0.99220985,0.0000,06/04.5442/2020,2000,g 10.5,4.0
# From MPEC 2022-ED3
A/2020 H9,e,137.8796,213.1846,312.7980,367.5524,0.0001399,0.99300504,0.0000,12/21.8046/2019,2000,g 18.0,2.0
# From MPEC 2023-HN7
C/2020 H11 (PANSTARRS-Lemmon),h,09/14.7157/2020,151.3948,303.0422,91.4489,1.001927,7.625641,2000,8.5,4.0
# From MPEC 2023-KD6
C/2020 J1 (SONEAR),h,04/18.5962/2021,142.3059,226.6107,341.7166,1.000640,3.351496,2000,8.5,3.2
# From MPEC 2023-V39
C/2020 K1 (PANSTARRS),e,89.6732,94.3595,213.9853,20212,0.0000003,0.99984794,0.0000,05/09.0837/2023,2000,g  5.5,4.0
# From MPEC 2021-N06
C/2020 K2 (PANSTARRS),h,08/06.1687/2020,91.0127,288.4037,67.3501,1.003061,8.880627,2000,10.8,4.0
# From MPEC 2020-KF9
C/2020 K3 (Leonard),p,06/01.0032/2020,129.0152,64.4924,1.583069,28.3546,2000,14.5,4.0
# From MPEC 2020-L06
C/2020 K4 (PANSTARRS),e,125.5849,264.2290,308.8670,23.97230,0.0083973,0.92689985,11.3014,11/10.0/2023,2000,g 16.5,4.0
# From MPEC 2021-R75
C/2020 K5 (PANSTARRS),h,06/05.3197/2021,67.0964,86.1552,249.6217,1.001275,1.537504,2000,11.0,4.0
# From MPEC 2023-N01
C/2020 K6 (Rankin),h,09/15.7876/2021,103.6469,291.5676,44.3362,1.003595,5.868700,2000,8.0,4.0
# From MPEC 2023-A50
C/2020 K7 (PANSTARRS),e,32.0434,286.0948,358.2322,97.61034,0.0010220,0.93449037,1.5069,11/10.0/2023,2000,g  8.0,4.0
# From MPEC 2021-P47
C/2020 K8 (Catalina-ATLAS),h,09/15.0348/2020,31.4510,181.5210,259.9560,1.000212,0.471398,2000,15.0,3.2
# From MPEC 2021-BE3
P/2020 K9 (Lemmon-PANSTARRS),e,23.2063,166.3108,197.0441,4.204112,0.1143386,0.32106319,114.4045,11/10.0/2023,2000,g 12.5,4.0
# From MPEC 2023-C45
P/2020 M1 (PANSTARRS),e,8.5341,142.6076,72.6401,5.316503,0.0804016,0.47318886,113.8721,11/10.0/2023,2000,g 14.5,4.0
# From MPEC 2022-H30
C/2020 M3 (ATLAS),e,23.4688,71.1873,328.5527,27.16730,0.0069604,0.95328310,7.7262,11/10.0/2023,2000,g 14.5,4.0
# From MPEC 2023-N01
A/2020 M4,h,11/24.0437/2020,160.1219,348.6236,104.6097,1.001052,5.948832,2000,14.5,2.0
# From MPC xxxxx
P/2020 MK4 (PANSTARRS),e,6.7917,0.7094,96.9471,6.212748,0.0636471,0.01269145,276.6168,11/10.0/2023,2000,g  8.0,4.0
# From MPEC 2023-FK0
C/2020 M5 (ATLAS),h,08/19.8626/2021,93.2116,352.0822,126.2827,1.000351,3.001632,2000,9.0,4.0
# From MPEC 2022-GA9
C/2020 N1 (PANSTARRS),h,03/12.5186/2021,29.7299,279.9044,186.7681,1.000539,1.317511,2000,12.5,4.0
# From MPEC 2021-P47
C/2020 N2 (ATLAS),e,61.0373,257.1536,331.2573,101.4509,0.0009645,0.98232642,0.0000,08/23.5792/2020,2000,g 16.0,3.2
# From MPEC 2023-R20
C/2020 O2 (Amaral),h,08/28.3122/2021,71.7620,256.7829,10.2838,1.001153,4.861922,2000,8.0,3.2
# From MPEC 2023-C45
P/2020 O3 (PANSTARRS),e,8.4444,266.8184,81.5915,4.647360,0.0983772,0.10286877,99.8025,11/10.0/2023,2000,g 12.0,4.0
# From MPEC 2021-BE3
C/2020 P1 (NEOWISE),h,10/20.6379/2020,45.1643,53.4766,8.8937,1.000348,0.340614,2000,14.0,3.2
# From MPEC 2023-O39
C/2020 P3 (ATLAS),h,04/21.7277/2021,61.8879,19.4669,82.2907,1.002181,6.812868,2000,6.0,4.0
# From MPEC 2022-PB4
C/2020 PV6 (PANSTARRS),e,128.2129,329.1481,71.3665,42.05502,0.0036139,0.94545050,2.8003,11/10.0/2023,2000,g 10.0,4.0
# From MPEC 2022-L66
C/2020 Q1 (Borisov),e,42.9435,52.3985,9.9599,61.49437,0.0020439,0.97859825,0.0000,08/14.8824/2020,2000,g 14.0,4.0
# From MPEC 2023-CD7
C/2020 Q2 (PANSTARRS),e,3.3358,179.8240,118.2830,10.63180,0.0284311,0.49087393,39.2739,11/10.0/2023,2000,g 12.0,3.2
# From MPEC 2022-X67
C/2020 R2 (PANSTARRS),e,53.2280,195.0949,211.8212,418.8980,0.0001150,0.98879444,0.0000,02/25.0929/2022,2000,g  9.0,4.0
# From MPEC 2022-K19
C/2020 R4 (ATLAS),e,164.4420,323.2669,46.6516,99.64145,0.0009909,0.98970856,0.0000,03/02.3001/2021,2000,g 13.5,4.0
# From MPEC 2023-C45
P/2020 R5 (PANSTARRS),e,11.4424,272.9590,82.6890,4.989220,0.0884413,0.31422253,111.3966,11/10.0/2023,2000,g  9.5,6.0
# From MPEC 2021-Y10
C/2020 R6 (Rankin),e,82.8189,12.1822,271.9966,306.0062,0.0001841,0.98975240,0.0000,09/08.0271/2019,2000,g 11.0,4.0
# From MPEC 2023-TM6
C/2020 R7 (ATLAS),h,09/16.2434/2022,114.9007,268.2917,347.8386,1.000251,2.955756,2000,7.0,3.2
# From MPEC 2021-BE3
P/2020 S1 (PANSTARRS),e,13.7249,129.5197,255.0201,5.995871,0.0671314,0.50767016,68.9005,11/10.0/2023,2000,g 14.0,4.0
# From MPEC 2022-ST7
C/2020 S2 (PANSTARRS),e,22.4040,197.6930,202.3416,10.23196,0.0301138,0.82819606,31.7008,11/10.0/2023,2000,g 17.0,4.0
# From MPEC 2022-C56
C/2020 S3 (Erasmus),e,20.0173,222.5982,350.0767,148.0885,0.0005469,0.99732658,0.0000,12/11.7651/2020,2000,g 13.5,3.2
# From MPEC 2023-O39
C/2020 S4 (PANSTARRS),h,02/09.2523/2023,20.5677,117.7135,20.9973,1.001636,3.369686,2000,8.5,3.2
# From MPEC 2021-BE3
P/2020 S5 (PANSTARRS),e,12.3469,316.0596,53.2072,4.055441,0.1206832,0.33827194,143.3533,11/10.0/2023,2000,g 14.5,4.0
# From MPEC 2021-BE3
P/2020 S7 (PANSTARRS),e,16.0850,328.0933,40.5764,5.032624,0.0872996,0.41048886,94.8261,11/10.0/2023,2000,g 14.5,4.0
# From MPEC 2021-P47
C/2020 S8 (Lemmon),e,108.5276,24.0676,160.2381,256.1163,0.0002405,0.99078622,0.0000,04/10.7590/2021,2000,g 12.5,4.0
# From MPEC 2022-TD3
C/2020 T2 (Palomar),e,27.8375,83.0618,150.4494,298.5335,0.0001911,0.99310400,0.0000,07/10.8217/2021,2000,g 11.0,3.2
# From MPEC 2021-N06
P/2020 T3 (PANSTARRS),e,7.2982,73.9940,357.0392,3.516720,0.1494505,0.59230224,152.8729,11/10.0/2023,2000,g 18.0,3.2
# From MPEC 2021-N06
C/2020 T4 (PANSTARRS),h,07/05.4200/2021,83.8520,50.6197,79.5952,1.000292,2.190999,2000,13.0,3.2
# From MPEC 2021-BE3
C/2020 T5 (Lemmon),e,66.5479,237.8318,90.3525,708.4495,0.0000523,0.99732826,0.0000,10/09.0543/2020,2000,g 16.0,4.0
# From MPEC 2021-N06
P/2020 U2 (PANSTARRS),e,6.4205,342.8868,84.6526,3.777941,0.1342213,0.51130384,140.7488,11/10.0/2023,2000,g 18.0,4.0
# From MPEC 2021-W31
C/2020 U3 (Rankin),e,30.1494,282.6625,124.3480,66.95670,0.0017989,0.96597395,1.8110,11/10.0/2023,2000,g 15.0,4.0
# From MPEC 2023-UR6
C/2020 U4 (PANSTARRS),h,04/09.3482/2022,167.0186,120.3507,70.0555,1.000314,5.358981,2000,7.0,4.0
# From MPEC 2023-SQ0
C/2020 U5 (PANSTARRS),e,97.2816,107.3208,75.4411,3751,0.0000043,0.99899853,0.0000,04/27.9883/2022,2000,g  8.0,4.0
# From MPEC 2023-V39
C/2020 V2 (ZTF),h,05/08.4820/2023,131.6115,212.3707,162.3960,1.000972,2.227583,2000,4.9,4.0
# From MPEC 2023-D72
P/2020 V3 (PANSTARRS),e,23.0327,198.2531,249.4571,8.391732,0.0405440,0.25737411,40.6362,11/10.0/2023,2000,g  8.3,4.0
# From MPEC 2023-KD6
P/2020 V4 (Rankin),e,14.2444,203.4825,257.0702,9.376209,0.0343292,0.45086537,28.9829,11/10.0/2023,2000,g  9.0,4.0
# From MPEC 2021-BE3
P/2020 W1 (Rankin),e,10.7835,124.3951,265.1480,7.218613,0.0508187,0.26630626,66.5377,11/10.0/2023,2000,g 10.0,4.0
# From MPEC 2021-BE3
C/2020 W5 (Lemmon),h,11/30.3285/2020,88.6058,75.4777,24.5091,1.001259,3.365677,2000,15.0,4.0
# From MPEC 2023-V39
P/2020 WJ5 (Lemmon),e,22.2917,177.8040,338.0924,6.015083,0.0668100,0.17148146,57.6474,11/10.0/2023,2000,g  8.5,4.0
# From MPEC 2021-P47
P/2020 X1 (ATLAS),e,31.6877,56.0452,323.4227,4.532166,0.1021516,0.36534208,123.2970,11/10.0/2023,2000,g 13.0,4.0
# From MPEC 2023-V39
C/2020 X2 (ATLAS),e,18.1844,105.4005,347.4125,16.47468,0.0147394,0.76769649,16.0456,11/10.0/2023,2000,g 10.6,4.0
# From MPEC 2021-S45
C/2020 X4 (Leonard),e,80.6229,161.9061,140.3172,40.80064,0.0037818,0.87197278,4.1182,11/10.0/2023,2000,g  9.0,4.0
# From MPEC 2023-V39
C/2020 Y2 (ATLAS),e,101.2444,26.5275,266.4001,4942,0.0000028,0.99936413,0.0000,06/18.6293/2022,2000,g  6.5,4.0
# From MPEC 2021-R75
C/2020 Y3 (ATLAS),e,83.1039,191.4324,341.9159,140.7049,0.0005905,0.98582502,0.0000,12/03.2793/2020,2000,g 13.5,4.0
# From MPEC 2023-CD7
C/2021 A1 (Leonard),h,01/03.3132/2022,132.7336,255.9045,225.1315,1.000068,0.616080,2000,8.5,4.0
# From MPEC 2022-F14
C/2021 A2 (NEOWISE),e,107.0006,125.1653,338.7694,229.7229,0.0002831,0.99385279,0.0000,01/22.3147/2021,2000,g 13.5,4.0
# From MPEC 2022-ED3
C/2021 A4 (NEOWISE),e,111.5512,307.1076,204.7152,42.38964,0.0035712,0.97291710,0.0000,03/19.6230/2021,2000,g 16.0,4.0
# From MPEC 2021-BE3
P/2021 A5 (PANSTARRS),e,18.1856,328.8322,61.3344,3.047588,0.1852549,0.13993479,202.2689,11/10.0/2023,2000,g 15.0,4.0
# From MPEC 2023-O39
C/2021 A6 (PANSTARRS),e,75.5945,164.0676,351.6177,8730,0.0000012,0.99909216,0.0000,05/02.9992/2021,2000,g  7.0,4.0
# From MPEC 2022-M88
C/2021 A7 (NEOWISE),e,78.1615,154.4861,355.9915,1966,0.0000113,0.99900007,0.0000,07/15.1504/2021,2000,g 10.0,4.0
# From MPEC 2023-SQ0
C/2021 A9 (PANSTARRS),h,12/01.8783/2023,158.0144,314.8362,211.4716,1.001375,7.760007,2000,6.0,4.0
# From MPEC 2021-N06
C/2021 A10 (NEOWISE),e,51.8958,188.6479,82.3906,88.41622,0.0011855,0.98572263,0.0000,03/14.9819/2021,2000,g 19.0,4.0
# From MPEC 2022-L66
C/2021 B2 (PANSTARRS),e,38.0818,120.5144,334.9855,372.3387,0.0001372,0.99325474,0.0000,05/04.5001/2021,2000,g 14.0,4.0
# From MPEC 2021-N06
C/2021 B3 (NEOWISE),e,119.4769,67.2781,293.5323,34.34204,0.0048974,0.93705552,4.7736,11/10.0/2023,2000,g 13.5,4.0
# From MPEC 2023-KD6
C/2021 C1 (Rankin),e,143.0440,186.8894,336.1897,4714,0.0000030,0.99926268,0.0000,12/06.7644/2020,2000,g 11.5,4.0
# From MPEC 2021-U31
P/2021 C2 (PANSTARRS),e,21.9389,66.4571,78.7017,9.535301,0.0334736,0.48757987,33.1202,11/10.0/2023,2000,g 12.0,4.0
# From MPEC 2021-N06
C/2021 C3 (Catalina),e,122.1682,181.9179,357.0436,61.41010,0.0020481,0.96297610,2.0502,11/10.0/2023,2000,g 14.0,4.0
# From MPEC 2022-M88
C/2021 C4 (ATLAS),e,132.8513,194.2742,320.1594,27560,0.0000002,0.99983674,0.0000,01/16.9179/2021,2000,g  9.0,4.0
# From MPEC 2023-R20
C/2021 C5 (PANSTARRS),e,50.7848,323.6767,270.9213,1973,0.0000112,0.99835690,0.0000,02/11.0445/2023,2000,g  9.0,4.0
# From MPEC 2022-YB4
C/2021 C6 (Lemmon),h,11/12.9220/2021,164.6091,332.3145,203.8094,1.000051,3.278130,2000,12.0,4.0
# From MPEC 2022-F14
C/2021 D1 (SWAN),e,31.4219,311.2730,72.2723,101.0645,0.0009701,0.99106194,0.0000,02/27.7652/2021,2000,g 13.0,4.0
# From MPEC 2023-J29
